{
"type": "FeatureCollection",
"name": "bahgoo_accessible_area",
"crs": { "type": "name", "properties": { "name": "urn:ogc:def:crs:OGC:1.3:CRS84" } },
"features": [
{ "type": "Feature", "properties": { }, "geometry": { "type": "Polygon", "coordinates": [ [ [ 78.091569057461655, 6.411130759595964 ], [ 77.921005263403373, 6.356343762042311 ], [ 77.746145284896883, 6.319151162201154 ], [ 77.568732853467452, 6.299915579309133 ], [ 77.390534556978864, 6.298822072481818 ], [ 77.213323210640837, 6.315876654107079 ], [ 77.038861225296969, 6.350906431609329 ], [ 76.868884103073185, 6.403561368249198 ], [ 76.70508418770487, 6.473317642766124 ], [ 76.689931159865779, 6.480704773683909 ], [ 76.467192287214303, 6.61041186280718 ], [ 75.981178000409059, 6.942248366929164 ], [ 75.819718018932946, 7.066292704076925 ], [ 75.673364343311803, 7.208410461538473 ], [ 75.337791919577768, 7.573018150208555 ], [ 75.230354797766879, 7.700977835003052 ], [ 75.135224119009152, 7.838699862191412 ], [ 75.053243649964784, 7.984994352769949 ], [ 67.890543965521132, 20.758760389220875 ], [ 67.809146471319949, 20.900384920904589 ], [ 67.741612244936221, 21.048346731611122 ], [ 67.688520152314638, 21.201468240447717 ], [ 67.650339865988173, 21.358527386756197 ], [ 67.32421091055366, 23.0052029587007 ], [ 67.2970307524986, 23.19376855398966 ], [ 67.291761061795185, 23.384052559782369 ], [ 67.308560013318896, 23.573914989172167 ], [ 67.34733970191202, 23.761210111510511 ], [ 67.414221554361092, 24.010541508754709 ], [ 67.415098606974496, 24.013796083727733 ], [ 72.830132918507203, 42.317921283429278 ], [ 72.898800969091212, 42.485000826597933 ], [ 72.989471365932232, 42.646010276406912 ], [ 73.101409437738099, 42.799372084961334 ], [ 73.233652240372081, 42.943573072488967 ], [ 83.575528963809319, 51.48772089769222 ], [ 83.762726718710297, 51.604086584962836 ], [ 83.966779823208242, 51.708514261820802 ], [ 84.185873193076532, 51.800037418790964 ], [ 84.418016199850911, 51.877804926711974 ], [ 84.661062892798853, 51.941090716925515 ], [ 84.91273539284019, 51.989302177746218 ], [ 99.126964479612994, 53.5135305799297 ], [ 99.43078529597534, 53.521113089814826 ], [ 102.457796580931145, 53.468031330138352 ], [ 102.857985476129528, 53.439484228212905 ], [ 116.616049599721265, 51.15764748725293 ], [ 116.837959212220966, 51.102050615182655 ], [ 117.049572824923359, 51.034341795187622 ], [ 117.249213246418535, 50.955092261666891 ], [ 117.43532735867781, 50.864961630535582 ], [ 118.91063365405023, 50.062715524077824 ], [ 119.09507743986623, 49.949124586223235 ], [ 120.573856175474262, 48.917420699690481 ], [ 120.716214821032807, 48.806185921301847 ], [ 120.841871311709582, 48.687133098089149 ], [ 120.959108751431586, 48.564028668116151 ], [ 121.015768000498412, 48.50120794998098 ], [ 128.706897363674699, 38.550981780344927 ], [ 128.794979049167807, 38.411920470397376 ], [ 128.864911984302381, 38.267489768455185 ], [ 128.916218639033843, 38.118927755088649 ], [ 128.948585613878805, 37.967496812379707 ], [ 128.961861960111293, 37.814473073498789 ], [ 128.956056193696924, 37.66113612345525 ], [ 128.93133217328608, 37.508759008666381 ], [ 128.693498522029046, 36.406615529586986 ], [ 128.658878318939884, 36.2742134999855 ], [ 128.610354705923669, 36.14428444305824 ], [ 128.600060544217655, 36.120389409625254 ], [ 128.554228089724376, 36.023924843630276 ], [ 123.886878741844285, 24.168808167976525 ], [ 123.834316704531432, 24.018285305380928 ], [ 123.76584471473376, 23.873031803073637 ], [ 123.682090847632892, 23.734279581749469 ], [ 123.58380394132368, 23.603203129614268 ], [ 123.471846787823168, 23.480910727848475 ], [ 123.347188779301405, 23.36843619138455 ], [ 123.210898052270039, 23.2667311496763 ], [ 123.064133164775257, 23.1766578926898 ], [ 122.908134335492306, 23.098982808769943 ], [ 121.252040163202679, 22.341571490775841 ], [ 121.107438141040035, 22.280382832394256 ], [ 120.957272180040135, 22.230091479576942 ], [ 101.154979456639751, 14.103921805355485 ], [ 101.017639713476996, 14.038121874296413 ], [ 100.874936946729932, 13.983774996941957 ], [ 100.727853391541302, 13.941259719938419 ], [ 80.551015370966809, 7.320650315958297 ], [ 80.482174901086807, 7.294187117257957 ], [ 78.091569057461655, 6.411130759595964 ] ] ] } }
]
}
